STARLINK-35315          
1 66543U 25265AD  26067.98905385  .00028713  00000+0  10484-2 0  9991
2 66543  43.0051 282.1148 0002391 271.0191  89.0386 15.27594453 17008
2025-313BE              
1 67482U 25313BE  26068.69721505  .00077178  00000+0  26504-2 0  9996
2 67482  97.3989 145.3568 0007208 335.3714  24.7181 15.29801687  7972
